NAYIF-1 (EO-88)         
1 42017U 17008BX  23076.43626825  .00080675  00000+0  12310-2 0  9998
2 42017  97.2263 145.4891 0001825 330.9942  29.1210 15.54174132339118
ZHUHAI-1 02 (CAS-4B)    
1 42759U 17034B   23076.52602418  .00012884  00000+0  67799-3 0  9991
2 42759  43.0171 264.5661 0011420 234.2237 216.1243 15.15504048317728
ZHUHAI-1 01 (CAS-4A)    
1 42761U 17034D   23076.60329479  .00014113  00000+0  73952-3 0  9991
2 42761  43.0171 262.7034 0011628 237.4373 172.6879 15.15589751317748
MAX VALIER SAT          
1 42778U 17036P   23076.35192576  .00019280  00000+0  57943-3 0  9991
2 42778  97.1712 113.5761 0010660  80.1244 280.1203 15.34390020318626
RADFXSAT (FOX-1B)       
1 43017U 17073E   23076.43961949  .00010731  00000+0  76410-3 0  9998
2 43017  97.6447 324.4203 0238715  12.3295 348.3622 14.84585622287561
FOX-1D (AO-92)          
1 43137U 18004AC  23076.16573078  .00032840  00000+0  84104-3 0  9992
2 43137  97.3365 154.7824 0007286 115.1325 245.0678 15.39300686288129
DIWATA-2B               
1 43678U 18084H   23076.45335905  .00003272  00000+0  32001-3 0  9993
2 43678  98.0045 218.6783 0010736 102.8514 257.3891 14.93020887238571
ES'HAIL 2               
1 43700U 18090A   23076.52427834  .00000132  00000+0  00000+0 0  9999
2 43700   0.0169 146.3551 0001061 230.0575  12.9398  1.00273271 15761
FOX-1CLIFF (AO-95)      
1 43770U 18099N   23076.39424484  .00007284  00000+0  60873-3 0  9991
2 43770  97.5851 140.4229 0015511  82.1114 278.1869 14.98708013233853
ITASAT 1                
1 43786U 18099AE  23076.44761946  .00005681  00000+0  47812-3 0  9998
2 43786  97.5859 141.5071 0015287  76.0168 284.2754 14.98534995233909
JY1SAT (JO-97)          
1 43803U 18099AX  23076.40766506  .00007017  00000+0  57327-3 0  9998
2 43803  97.5867 141.3754 0015916  69.9114 290.3820 14.99593142233930
UWE-4                   
1 43880U 18111E   23076.46450011  .00007617  00000+0  60166-3 0  9996
2 43880  97.6471 343.1029 0017282 119.2709 241.0245 15.00843146230601
NEXUS (FO-99)           
1 43937U 19003F   23076.37808591  .00042460  00000+0  95481-3 0  9993
2 43937  97.1009 105.2929 0013684 245.4495 114.5327 15.43107947231849
JAISAT-1                
1 44419U 19038F   23076.41498642  .00025383  00000+0  10033-2 0  9998
2 44419  97.6684  55.4366 0012900 262.6290  97.3481 15.25400718204520
DUCHIFAT-3              
1 44854U 19089C   23076.55145894  .00014066  00000+0  98810-3 0  9996
2 44854  36.9656 278.2810 0009668 293.7958  92.6775 15.04494605179025
CAS-6 (TIANQIN 1)       
1 44881U 19093C   23076.49877708  .00002280  00000+0  29159-3 0  9995
2 44881  97.8663 156.5082 0015332  22.0000 338.1856 14.82275801175219
RS-44 & BREEZE-KM R/B   
1 44909U 19096E   23076.43759733  .00000043  00000+0  12438-3 0  9997
2 44909  82.5211  48.9009 0218327  41.7124 320.0395 12.79719154150429
ORBITAL FACTORY 2 (OF-2)
1 45113U 19071C   23076.54921826  .02695656  11834-4  15253-2 0  9995
2 45113  51.6130 128.2108 0008192  21.7176 338.4187 16.18361591175972
HUSKYSAT-1 (HO-107)     
1 45119U 19071J   23076.40335211  .00303725  00000+0  13154-2 0  9990
2 45119  51.6245 137.0643 0010073  35.5871 324.5801 15.83433091175833
BY70-2                  
1 45857U 20042B   23076.59314695  .00031025  00000+0  35000-2 0  9997
2 45857  97.9287 156.4304 0008588 301.9237  58.1104 14.86463168145916
SALSAT                  
1 46495U 20068K   23076.57343473  .00006504  00000+0  44113-3 0  9998
2 46495  97.7609  23.7285 0018097  73.6380 286.6835 15.06649018135273
BY70-3                  
1 46839U 20079N   23076.49115597  .00482564  00000+0  23087-2 0  9997
2 46839  97.1523 153.4806 0002877 290.0710 198.2917 15.81515090132591
RADFXSAT-2 (AO-109)     
1 47311U 21002C   23076.49222978  .00028443  00000+0  85928-3 0  9997
2 47311  60.6825  49.7387 0031419 125.1808 235.2234 15.33659760120195
UVSQ-SAT                
1 47438U 21006AB  23076.43859628  .00016268  00000+0  72951-3 0  9997
2 47438  97.3979 135.0084 0011060  51.4336 308.7889 15.21237206118689
DIY-1 (ARDUIQUBE)       
1 47963U 21022AH  23076.44924583  .00094496  00000+0  28220-2 0  9990
2 47963  97.5103 341.8477 0006409 258.1261 101.9263 15.34217020108415
XW-3 (CAS-9)            
1 50466U 21131B   23076.58565985  .00001095  00000+0  37083-3 0  9996
2 50466  98.5554 158.4175 0005294  66.1983 293.9759 14.38754075 64180
TEVEL-3                 
1 50988U 22002E   23076.56000204  .00029109  00000+0  13067-2 0  9990
2 50988  97.4443 144.3616 0008932 188.3877 279.4562 15.21097906 64816
TEVEL-8                 
1 50989U 22002F   23076.57560723  .00029106  00000+0  13088-2 0  9999
2 50989  97.4450 144.4246 0009171 187.2933 283.8389 15.21037900 64816
TEVEL-5                 
1 50998U 22002Q   23076.48719535  .00030030  00000+0  13214-2 0  9995
2 50998  97.4439 144.5771 0010384 184.3548 300.8839 15.21762969 64826
TEVEL-6                 
1 50999U 22002R   23076.61364830  .00029991  00000+0  13192-2 0  9994
2 50999  97.4438 144.6983 0010393 183.4611 281.4606 15.21776134 64840
TEVEL-1                 
1 51013U 22002AF  23076.43953669  .00029041  00000+0  13053-2 0  9998
2 51013  97.4437 144.1977 0008891 188.7491 299.7904 15.21055169 64794
TEVEL-7                 
1 51062U 22002CG  23076.57728669  .00029172  00000+0  13114-2 0  9990
2 51062  97.4442 144.4018 0008978 187.6382 282.8332 15.21047407 64813
TEVEL-4                 
1 51063U 22002CH  23076.58087331  .00029034  00000+0  13067-2 0  9990
2 51063  97.4446 144.3959 0008947 187.5981 283.7146 15.21011162 64813
TEVEL-2                 
1 51069U 22002CP  23076.56152282  .00029058  00000+0  13044-2 0  9993
2 51069  97.4436 144.3377 0008979 188.7229 277.1578 15.21098270 64816
GREENCUBE               
1 53106U 22080B   23075.13340333 -.00000003  00000+0  00000+0 0  9996
2 53106  70.1817 352.0525 0008319 207.8404 152.1811  6.42557089 15774
RS29S (SXC3-2110 CYCLO*)
1 53373U 22096D   23076.49140927  .00040779  00000+0  12838-2 0  9994
2 53373  97.4212 342.0988 0003459  90.7849 321.3877 15.32809083 33613
RS32S (SXC3-212 MONITO*)
1 53374U 22096E   23076.49068340  .00038234  00000+0  12135-2 0  9996
2 53374  97.4192 342.0817 0003780  88.3634 325.1288 15.32562623 33618
RS34S (SXC3-218 KUZBAS*)
1 53375U 22096F   23076.56136667  .00032142  00000+0  10589-2 0  9996
2 53375  97.4219 342.0334 0003676  89.6907  31.9142 15.31402368 33613
RS23S (SXC3-21 UTMN)    
1 53376U 22096G   23076.60740203  .00034520  00000+0  11242-2 0  9998
2 53376  97.4217 342.1136 0003814  86.5247  11.9049 15.31759928 33622
RS28S (SXC3-214 MIET-A*)
1 53377U 22096H   23076.55510933  .00031273  00000+0  10323-2 0  9999
2 53377  97.4220 342.0383 0003794  85.2369  21.1653 15.31344674 33619
RS26S (KAI-1)           
1 53378U 22096J   23076.52814875  .00026530  00000+0  89873-3 0  9996
2 53378  97.4225 341.9308 0003630  84.7928  40.9260 15.30541579 33608
RS19S (SXC3-219 ISOI)   
1 53381U 22096M   23076.60899985  .00033364  00000+0  10778-2 0  9994
2 53381  97.4217 342.2560 0005848  50.0105  34.1992 15.32018855 33631
RS21S (CUBESX-HSE-2)    
1 53383U 22096P   23076.53806330  .00034043  00000+0  10943-2 0  9999
2 53383  97.4210 342.2136 0005910  49.8957  57.5529 15.32171445 33625
RS30S (SXC3-217 SIREN)  
1 53384U 22096Q   23076.51350867  .00030007  00000+0  98746-3 0  9991
2 53384  97.4223 342.1226 0005807  47.1706 126.1078 15.31444673 33613
RS20S (GEOSCAN-EDELVEIS)
1 53385U 22096R   23076.55271170  .00043044  00000+0  12987-2 0  9992
2 53385  97.4210 342.4839 0006295  46.4292  54.1537 15.34137610 33676
RS33S (SXC3-215 VIZARD) 
1 53386U 22096S   23076.56519370  .00054727  00000+0  15537-2 0  9995
2 53386  97.4211 342.7627 0007024  46.6732  37.2839 15.35991469 33687
CAS-5A (FO-118)         
1 54684U 22167C   23076.48654454  .00019587  00000+0  11589-2 0  9998
2 54684  97.5450 214.9341 0013799 290.5374 158.4326 15.11402766 14818
